[{"OBJECT_NAME":"GEOSCAN 4 (RS92S4)","OBJECT_ID":"2025-155S","EPOCH":"2026-03-09T21:50:07.724832","MEAN_MOTION":15.30369837,"ECCENTRICITY":0.00070968,"INCLINATION":97.4465,"RA_OF_ASC_NODE":37.7626,"ARG_OF_PERICENTER":154.7045,"MEAN_ANOMALY":205.4544,"EPHEMERIS_TYPE":0,"CLASSIFICATION_TYPE":"U","NORAD_CAT_ID":64892,"ELEMENT_SET_NO":999,"REV_AT_EPOCH":6562,"BSTAR":0.00068609503,"MEAN_MOTION_DOT":0.00020121,"MEAN_MOTION_DDOT":0},{"OBJECT_NAME":"STARLINK-34905","OBJECT_ID":"2025-176E","EPOCH":"2026-03-09T12:41:22.199424","MEAN_MOTION":15.30183078,"ECCENTRICITY":0.00010764,"INCLINATION":53.1576,"RA_OF_ASC_NODE":153.6311,"ARG_OF_PERICENTER":82.6433,"MEAN_ANOMALY":277.469,"EPHEMERIS_TYPE":0,"CLASSIFICATION_TYPE":"U","NORAD_CAT_ID":65202,"ELEMENT_SET_NO":999,"REV_AT_EPOCH":3309,"BSTAR":0.00078295387,"MEAN_MOTION_DOT":0.00022889,"MEAN_MOTION_DDOT":0}]
